{"type": "FeatureCollection", "features": [ {"type": "Feature", "properties": {"norad_id": 66890, "name": "STARLINK-35885", "group": "last-30-days", "lat": -50.902006001904795, "lon": -114.44197836526821, "alt_km": 422.5960895568023, "timestamp": "2025-12-27T23:26:36.074114+00:00", "meta": {"OBJECT_NAME": "STARLINK-35885", "OBJECT_ID": "2025-283N", "EPOCH": "2025-12-27T12:00:02.000160", "MEAN_MOTION": 15.5182632, "ECCENTRICITY": 0.0001545, "INCLINATION": 53.1602, "RA_OF_ASC_NODE": 0.5359, "ARG_OF_PERICENTER": 69.1055, "MEAN_ANOMALY": 43.287, "EPHEMERIS_TYPE": 0, "CLASSIFICATION_TYPE": "U", "NORAD_CAT_ID": 66890, "ELEMENT_SET_NO": 999, "REV_AT_EPOCH": 480, "BSTAR": -0.032937, "MEAN_MOTION_DOT": -0.01781062, "MEAN_MOTION_DDOT": 0}, "tle": {"line1": "1 66890U 25283N   25361.50002315 -.01781062  00000+0 -32937-1 0  9993", "line2": "2 66890  53.1602   0.5359 0001545  69.1055  43.2870 15.51826320  4800"}}, "geometry": {"type": "Point", "coordinates": [-114.44197836526821, -50.902006001904795]}}, {"type": "Feature", "properties": {"norad_id": 66891, "name": "STARLINK-35855", "group": "last-30-days", "lat": -51.452622414819466, "lon": -111.54682990488215, "alt_km": 422.5019500512617, "timestamp": "2025-12-27T23:26:36.074124+00:00", "meta": {"OBJECT_NAME": "STARLINK-35855", "OBJECT_ID": "2025-283P", "EPOCH": "2025-12-27T12:00:02.000160", "MEAN_MOTION": 15.5182394, "ECCENTRICITY": 0.0001322, "INCLINATION": 53.1602, "RA_OF_ASC_NODE": 0.5316, "ARG_OF_PERICENTER": 69.7193, "MEAN_ANOMALY": 44.5925, "EPHEMERIS_TYPE": 0, "CLASSIFICATION_TYPE": "U", "NORAD_CAT_ID": 66891, "ELEMENT_SET_NO": 999, "REV_AT_EPOCH": 480, "BSTAR": -0.033201, "MEAN_MOTION_DOT": -0.01793484, "MEAN_MOTION_DDOT": 0}, "tle": {"line1": "1 66891U 25283P   25361.50002315 -.01793484  00000+0 -33201-1 0  9990", "line2": "2 66891  53.1602   0.5316 0001322  69.7193  44.5925 15.51823940  4806"}}, "geometry": {"type": "Point", "coordinates": [-111.54682990488215, -51.452622414819466]}}, {"type": "Feature", "properties": {"norad_id": 66892, "name": "STARLINK-35883", "group": "last-30-days", "lat": -51.93329562669748, "lon": -108.56189934241884, "alt_km": 422.48092832302063, "timestamp": "2025-12-27T23:26:36.074133+00:00", "meta": {"OBJECT_NAME": "STARLINK-35883", "OBJECT_ID": "2025-283Q", "EPOCH": "2025-12-27T12:00:02.000160", "MEAN_MOTION": 15.51827577, "ECCENTRICITY": 0.0001268, "INCLINATION": 53.1599, "RA_OF_ASC_NODE": 0.527, "ARG_OF_PERICENTER": 71.7143, "MEAN_ANOMALY": 44.5135, "EPHEMERIS_TYPE": 0, "CLASSIFICATION_TYPE": "U", "NORAD_CAT_ID": 66892, "ELEMENT_SET_NO": 999, "REV_AT_EPOCH": 474, "BSTAR": -0.033289, "MEAN_MOTION_DOT": -0.01797862, "MEAN_MOTION_DDOT": 0}, "tle": {"line1": "1 66892U 25283Q   25361.50002315 -.01797862  00000+0 -33289-1 0  9991", "line2": "2 66892  53.1599   0.5270 0001268  71.7143  44.5135 15.51827577  4744"}}, "geometry": {"type": "Point", "coordinates": [-108.56189934241884, -51.93329562669748]}}, {"type": "Feature", "properties": {"norad_id": 66893, "name": "STARLINK-36033", "group": "last-30-days", "lat": -52.335018273873274, "lon": -105.53259085033287, "alt_km": 422.45898321815093, "timestamp": "2025-12-27T23:26:36.074145+00:00", "meta": {"OBJECT_NAME": "STARLINK-36033", "OBJECT_ID": "2025-283R", "EPOCH": "2025-12-27T12:00:02.000160", "MEAN_MOTION": 15.51825656, "ECCENTRICITY": 0.0001209, "INCLINATION": 53.1598, "RA_OF_ASC_NODE": 0.5231, "ARG_OF_PERICENTER": 65.3066, "MEAN_ANOMALY": 52.8398, "EPHEMERIS_TYPE": 0, "CLASSIFICATION_TYPE": "U", "NORAD_CAT_ID": 66893, "ELEMENT_SET_NO": 999, "REV_AT_EPOCH": 480, "BSTAR": -0.033404, "MEAN_MOTION_DOT": -0.01803231, "MEAN_MOTION_DDOT": 0}, "tle": {"line1": "1 66893U 25283R   25361.50002315 -.01803231  00000+0 -33404-1 0  9999", "line2": "2 66893  53.1598   0.5231 0001209  65.3066  52.8398 15.51825656  4805"}}, "geometry": {"type": "Point", "coordinates": [-105.53259085033287, -52.335018273873274]}}, {"type": "Feature", "properties": {"norad_id": 66894, "name": "STARLINK-35718", "group": "last-30-days", "lat": -52.659623337488945, "lon": -102.43067904929572, "alt_km": 422.5777218289941, "timestamp": "2025-12-27T23:26:36.074155+00:00", "meta": {"OBJECT_NAME": "STARLINK-35718", "OBJECT_ID": "2025-283S", "EPOCH": "2025-12-27T12:00:02.000160", "MEAN_MOTION": 15.51826795, "ECCENTRICITY": 0.0001401, "INCLINATION": 53.1596, "RA_OF_ASC_NODE": 0.5199, "ARG_OF_PERICENTER": 67.5964, "MEAN_ANOMALY": 52.4649, "EPHEMERIS_TYPE": 0, "CLASSIFICATION_TYPE": "U", "NORAD_CAT_ID": 66894, "ELEMENT_SET_NO": 999, "REV_AT_EPOCH": 480, "BSTAR": -0.033293, "MEAN_MOTION_DOT": -0.0179808, "MEAN_MOTION_DDOT": 0}, "tle": {"line1": "1 66894U 25283S   25361.50002315 -.01798080  00000+0 -33293-1 0  9991", "line2": "2 66894  53.1596   0.5199 0001401  67.5964  52.4649 15.51826795  4802"}}, "geometry": {"type": "Point", "coordinates": [-102.43067904929572, -52.659623337488945]}}, {"type": "Feature", "properties": {"norad_id": 66895, "name": "STARLINK-35971", "group": "last-30-days", "lat": -53.06074077802712, "lon": -96.12943082247308, "alt_km": 422.47146550558955, "timestamp": "2025-12-27T23:26:36.074167+00:00", "meta": {"OBJECT_NAME": "STARLINK-35971", "OBJECT_ID": "2025-283T", "EPOCH": "2025-12-27T12:00:02.000160", "MEAN_MOTION": 15.51822507, "ECCENTRICITY": 0.0001232, "INCLINATION": 53.1599, "RA_OF_ASC_NODE": 0.5098, "ARG_OF_PERICENTER": 74.986, "MEAN_ANOMALY": 48.913, "EPHEMERIS_TYPE": 0, "CLASSIFICATION_TYPE": "U", "NORAD_CAT_ID": 66895, "ELEMENT_SET_NO": 999, "REV_AT_EPOCH": 480, "BSTAR": -0.033166, "MEAN_MOTION_DOT": -0.01791648, "MEAN_MOTION_DDOT": 0}, "tle": {"line1": "1 66895U 25283T   25361.50002315 -.01791648  00000+0 -33166-1 0  9994", "line2": "2 66895  53.1599   0.5098 0001232  74.9860  48.9130 15.51822507  4805"}}, "geometry": {"type": "Point", "coordinates": [-96.12943082247308, -53.06074077802712]}}, {"type": "Feature", "properties": {"norad_id": 66896, "name": "STARLINK-35791", "group": "last-30-days", "lat": -52.90232800232174, "lon": -99.28681289176458, "alt_km": 422.3931817365701, "timestamp": "2025-12-27T23:26:36.074177+00:00", "meta": {"OBJECT_NAME": "STARLINK-35791", "OBJECT_ID": "2025-283U", "EPOCH": "2025-12-27T12:00:02.000160", "MEAN_MOTION": 15.51820393, "ECCENTRICITY": 0.000115, "INCLINATION": 53.1595, "RA_OF_ASC_NODE": 0.5139, "ARG_OF_PERICENTER": 76.6046, "MEAN_ANOMALY": 45.3745, "EPHEMERIS_TYPE": 0, "CLASSIFICATION_TYPE": "U", "NORAD_CAT_ID": 66896, "ELEMENT_SET_NO": 999, "REV_AT_EPOCH": 480, "BSTAR": -0.03298, "MEAN_MOTION_DOT": -0.01782585, "MEAN_MOTION_DDOT": 0}, "tle": {"line1": "1 66896U 25283U   25361.50002315 -.01782585  00000+0 -32980-1 0  9998", "line2": "2 66896  53.1595   0.5139 0001150  76.6046  45.3745 15.51820393  4806"}}, "geometry": {"type": "Point", "coordinates": [-99.28681289176458, -52.90232800232174]}}, {"type": "Feature", "properties": {"norad_id": 66897, "name": "STARLINK-36079", "group": "last-30-days", "lat": -53.13437429889009, "lon": -92.9516726153044, "alt_km": 422.4111218568878, "timestamp": "2025-12-27T23:26:36.074187+00:00", "meta": {"OBJECT_NAME": "STARLINK-36079", "OBJECT_ID": "2025-283V", "EPOCH": "2025-12-27T12:00:02.000160", "MEAN_MOTION": 15.51822628, "ECCENTRICITY": 0.000123, "INCLINATION": 53.1598, "RA_OF_ASC_NODE": 0.5065, "ARG_OF_PERICENTER": 63.3531, "MEAN_ANOMALY": 62.46, "EPHEMERIS_TYPE": 0, "CLASSIFICATION_TYPE": "U", "NORAD_CAT_ID": 66897, "ELEMENT_SET_NO": 999, "REV_AT_EPOCH": 480, "BSTAR": -0.033088, "MEAN_MOTION_DOT": -0.01787908, "MEAN_MOTION_DDOT": 0}, "tle": {"line1": "1 66897U 25283V   25361.50002315 -.01787908  00000+0 -33088-1 0  9993", "line2": "2 66897  53.1598   0.5065 0001230  63.3531  62.4600 15.51822628  4802"}}, "geometry": {"type": "Point", "coordinates": [-92.9516726153044, -53.13437429889009]}}, {"type": "Feature", "properties": {"norad_id": 66898, "name": "STARLINK-36065", "group": "last-30-days", "lat": -53.1231284180001, "lon": -89.76888116429295, "alt_km": 422.49336623760973, "timestamp": "2025-12-27T23:26:36.074200+00:00", "meta": {"OBJECT_NAME": "STARLINK-36065", "OBJECT_ID": "2025-283W", "EPOCH": "2025-12-27T12:00:02.000160", "MEAN_MOTION": 15.51827294, "ECCENTRICITY": 0.00013, "INCLINATION": 53.1598, "RA_OF_ASC_NODE": 0.5022, "ARG_OF_PERICENTER": 69.6662, "MEAN_ANOMALY": 58.0637, "EPHEMERIS_TYPE": 0, "CLASSIFICATION_TYPE": "U", "NORAD_CAT_ID": 66898, "ELEMENT_SET_NO": 999, "REV_AT_EPOCH": 480, "BSTAR": -0.033283, "MEAN_MOTION_DOT": -0.01797571, "MEAN_MOTION_DDOT": 0}, "tle": {"line1": "1 66898U 25283W   25361.50002315 -.01797571  00000+0 -33283-1 0  9998", "line2": "2 66898  53.1598   0.5022 0001300  69.6662  58.0637 15.51827294  4803"}}, "geometry": {"type": "Point", "coordinates": [-89.76888116429295, -53.1231284180001]}}, {"type": "Feature", "properties": {"norad_id": 66899, "name": "STARLINK-36064", "group": "last-30-days", "lat": -53.02689371679709, "lon": -86.5902007522593, "alt_km": 422.49291777582584, "timestamp": "2025-12-27T23:26:36.074210+00:00", "meta": {"OBJECT_NAME": "STARLINK-36064", "OBJECT_ID": "2025-283X", "EPOCH": "2025-12-27T12:00:02.000160", "MEAN_MOTION": 15.51824398, "ECCENTRICITY": 0.0001354, "INCLINATION": 53.1599, "RA_OF_ASC_NODE": 0.4986, "ARG_OF_PERICENTER": 69.0059, "MEAN_ANOMALY": 60.6391, "EPHEMERIS_TYPE": 0, "CLASSIFICATION_TYPE": "U", "NORAD_CAT_ID": 66899, "ELEMENT_SET_NO": 999, "REV_AT_EPOCH": 474, "BSTAR": -0.033107, "MEAN_MOTION_DOT": -0.01789024, "MEAN_MOTION_DDOT": 0}, "tle": {"line1": "1 66899U 25283X   25361.50002315 -.01789024  00000+0 -33107-1 0  9998", "line2": "2 66899  53.1599   0.4986 0001354  69.0059  60.6391 15.51824398  4747"}}, "geometry": {"type": "Point", "coordinates": [-86.5902007522593, -53.02689371679709]}}]}